[{"OBJECT_NAME":"ITUPSAT1","OBJECT_ID":"2009-051E","EPOCH":"2026-03-09T22:57:51.275808","MEAN_MOTION":14.60268809,"ECCENTRICITY":0.0007289,"INCLINATION":98.4113,"RA_OF_ASC_NODE":334.2386,"ARG_OF_PERICENTER":177.2915,"MEAN_ANOMALY":182.8326,"EPHEMERIS_TYPE":0,"CLASSIFICATION_TYPE":"U","NORAD_CAT_ID":35935,"ELEMENT_SET_NO":999,"REV_AT_EPOCH":87425,"BSTAR":0.00025648628,"MEAN_MOTION_DOT":1.19e-5,"MEAN_MOTION_DDOT":0},{"OBJECT_NAME":"CZ-4C R\/B","OBJECT_ID":"2021-131C","EPOCH":"2026-03-09T23:10:00.451200","MEAN_MOTION":14.67704563,"ECCENTRICITY":0.01086317,"INCLINATION":98.7279,"RA_OF_ASC_NODE":248.5167,"ARG_OF_PERICENTER":339.3619,"MEAN_ANOMALY":20.3212,"EPHEMERIS_TYPE":0,"CLASSIFICATION_TYPE":"U","NORAD_CAT_ID":50467,"ELEMENT_SET_NO":999,"REV_AT_EPOCH":22480,"BSTAR":0.00011572533,"MEAN_MOTION_DOT":6.56e-6,"MEAN_MOTION_DDOT":0}]
